ORBCOMM FM20            
1 25416U 98046D   24244.96529245  .00002967  00000+0  10660-2 0  9991
2 25416  44.9934 109.5914 0000181  61.8501 298.2364 14.35703761362713
ORBCOMM FM16            
1 25417U 98046E   24244.90985495  .00004129  00000+0  14308-2 0  9994
2 25417  44.9933 104.7010 0003261 281.0187  79.0294 14.36859663362615
ORBCOMM FM15            
1 25418U 98046F   24245.09782176  .00004269  00000+0  14865-2 0  9990
2 25418  44.9967 108.1504 0002910 286.3175  73.7352 14.36560463362819
ORBCOMM FM14            
1 25419U 98046G   24244.89849302  .00003923  00000+0  13641-2 0  9990
2 25419  44.9953 108.0290 0001707 268.2251  91.8401 14.36779908362578
ORBCOMM FM13            
1 25420U 98046H   24244.93551595  .00003533  00000+0  12537-2 0  9991
2 25420  44.9966 113.4093 0004095 264.9535  95.0845 14.35948329361634
ORBCOMM FM21            
1 25475U 98053A   24244.61559527  .00003624  00000+0  12886-2 0  9995
2 25475  45.0068 199.4244 0001794 298.0141  62.0525 14.35815051355609
ORBCOMM FM22            
1 25476U 98053B   24245.17398917  .00004742  00000+0  16495-2 0  9994
2 25476  45.0059 193.5675 0002136 254.5007 105.5604 14.36447321356044
ORBCOMM FM23            
1 25477U 98053C   24245.12721060  .00004273  00000+0  15089-2 0  9996
2 25477  45.0068 199.3938 0001911 268.1990  91.8639 14.35862641356133
